start=new Date('2022-11-22T00:00:00.000Z').valueOf();
sats=[{"TLE_LINE2":"2 53799  53.2166 271.8978 0001125  89.1241 248.2082 15.56485977  1301","SITE":"AFETR","DECAY_DATE":null,"REV_AT_EPOCH":"130","MEAN_ELEMENT_THEORY":"SGP4","OBJECT_TYPE":"PAYLOAD","MEAN_MOTION":"15.56485977","EPHEMERIS_TYPE":"0","LAUNCH_DATE":"2022-09-11","MEAN_MOTION_DOT":"-0.01163024","SEMIMAJOR_AXIS":"6775.974","OBJECT_NAME":"STARLINK-4710","CLASSIFICATION_TYPE":"U","ARG_OF_PERICENTER":"89.1241","MEAN_MOTION_DDOT":"0.0000000000000","INCLINATION":"53.2166","ELEMENT_SET_NO":"999","BSTAR":"-0.01790600000000","NORAD_CAT_ID":"53799","RA_OF_ASC_NODE":"271.8978","PERIAPSIS":"397.076","PERIOD":"92.516","RCS_SIZE":"LARGE","ECCENTRICITY":"0.00011250","TLE_LINE1":"1 53799U 22111AC  22325.91667824 -.01163024  00000-0 -17906-1 0  9990","APOAPSIS":"398.601","OBJECT_ID":"2022-111AC","COUNTRY_CODE":"US","EPOCH":"2022-11-21T22:00:00.999936","MEAN_ANOMALY":"248.2082","FILE":"3666658","REF_FRAME":"TEME","GP_ID":"218435498","TIME_SYSTEM":"UTC","CENTER_NAME":"EARTH"},{"REV_AT_EPOCH":"130","SITE":"AFETR","DECAY_DATE":null,"TLE_LINE2":"2 53800  53.2166 271.9023 0001109  71.7933 263.1852 15.56421035  1309","MEAN_ELEMENT_THEORY":"SGP4","OBJECT_TYPE":"PAYLOAD","EPHEMERIS_TYPE":"0","MEAN_MOTION":"15.56421035","INCLINATION":"53.2166","CLASSIFICATION_TYPE":"U","ARG_OF_PERICENTER":"71.7933","MEAN_MOTION_DDOT":"0.0000000000000","OBJECT_NAME":"STARLINK-4720","LAUNCH_DATE":"2022-09-11","MEAN_MOTION_DOT":"-0.01170398","SEMIMAJOR_AXIS":"6776.162","RA_OF_ASC_NODE":"271.9023","BSTAR":"-0.01807600000000","NORAD_CAT_ID":"53800","ELEMENT_SET_NO":"999","TLE_LINE1":"1 53800U 22111AD  22325.91667824 -.01170398  00000-0 -18076-1 0  9994","APOAPSIS":"398.778","OBJECT_ID":"2022-111AD","PERIAPSIS":"397.276","ECCENTRICITY":"0.00011090","RCS_SIZE":"LARGE","PERIOD":"92.520","CENTER_NAME":"EARTH","TIME_SYSTEM":"UTC","REF_FRAME":"TEME","GP_ID":"218436318","FILE":"3666658","MEAN_ANOMALY":"263.1852","COUNTRY_CODE":"US","EPOCH":"2022-11-21T22:00:00.999936"},{"MEAN_MOTION":"15.56630116","EPHEMERIS_TYPE":"0","TLE_LINE2":"2 53801  53.2167 271.8886 0001054  79.9026 262.1066 15.56630116  1307","DECAY_DATE":null,"SITE":"AFETR","REV_AT_EPOCH":"130","OBJECT_TYPE":"PAYLOAD","MEAN_ELEMENT_THEORY":"SGP4","RCS_SIZE":"LARGE","ECCENTRICITY":"0.00010540","PERIOD":"92.508","PERIAPSIS":"396.706","OBJECT_ID":"2022-111AE","TLE_LINE1":"1 53801U 22111AE  22325.91667824 -.01166389  00000-0 -17867-1 0  9997","APOAPSIS":"398.134","COUNTRY_CODE":"US","MEAN_ANOMALY":"262.1066","EPOCH":"2022-11-21T22:00:00.999936","FILE":"3666658","REF_FRAME":"TEME","GP_ID":"218436154","TIME_SYSTEM":"UTC","CENTER_NAME":"EARTH","MEAN_MOTION_DOT":"-0.01166389","SEMIMAJOR_AXIS":"6775.555","LAUNCH_DATE":"2022-09-11","OBJECT_NAME":"STARLINK-4715","MEAN_MOTION_DDOT":"0.0000000000000","ARG_OF_PERICENTER":"79.9026","CLASSIFICATION_TYPE":"U","INCLINATION":"53.2167","ELEMENT_SET_NO":"999","NORAD_CAT_ID":"53801","BSTAR":"-0.01786700000000","RA_OF_ASC_NODE":"271.8886"},{"RA_OF_ASC_NODE":"271.8924","ELEMENT_SET_NO":"999","BSTAR":"-0.01804000000000","NORAD_CAT_ID":"53802","CLASSIFICATION_TYPE":"U","ARG_OF_PERICENTER":"57.2921","MEAN_MOTION_DDOT":"0.0000000000000","INCLINATION":"53.2165","LAUNCH_DATE":"2022-09-11","MEAN_MOTION_DOT":"-0.01173942","SEMIMAJOR_AXIS":"6775.749","OBJECT_NAME":"STARLINK-4726","REF_FRAME":"TEME","GP_ID":"218435334","CENTER_NAME":"EARTH","TIME_SYSTEM":"UTC","MEAN_ANOMALY":"282.3396","COUNTRY_CODE":"US","EPOCH":"2022-11-21T22:00:00.999936","FILE":"3666658","PERIAPSIS":"396.842","PERIOD":"92.511","RCS_SIZE":"LARGE","ECCENTRICITY":"0.00011390","TLE_LINE1":"1 53802U 22111AF  22325.91667824 -.01173942  00000-0 -18040-1 0  9995","APOAPSIS":"398.385","OBJECT_ID":"2022-111AF","MEAN_ELEMENT_THEORY":"SGP4","OBJECT_TYPE":"PAYLOAD","SITE":"AFETR","DECAY_DATE":null,"REV_AT_EPOCH":"130","TLE_LINE2":"2 53802  53.2165 271.8924 0001139  57.2921 282.3396 15.56563463  1306","EPHEMERIS_TYPE":"0","MEAN_MOTION":"15.56563463"},{"REF_FRAME":"TEME","GP_ID":"218435830","TIME_SYSTEM":"UTC","CENTER_NAME":"EARTH","COUNTRY_CODE":"US","EPOCH":"2022-11-21T22:00:00.999936","MEAN_ANOMALY":"182.0712","FILE":"3666658","PERIAPSIS":"347.301","ECCENTRICITY":"0.00036310","RCS_SIZE":"MEDIUM","PERIOD":"91.533","APOAPSIS":"352.187","TLE_LINE1":"1 53803U 22111AG  22325.91667824  .00026154  00000-0  19010-3 0  9995","OBJECT_ID":"2022-111AG","RA_OF_ASC_NODE":"271.4758","ELEMENT_SET_NO":"999","BSTAR":"0.00019010000000","NORAD_CAT_ID":"53803","CLASSIFICATION_TYPE":"U","MEAN_MOTION_DDOT":"0.0000000000000","ARG_OF_PERICENTER":"4.9597","INCLINATION":"53.2148","LAUNCH_DATE":"2022-09-11","MEAN_MOTION_DOT":"0.00026154","SEMIMAJOR_AXIS":"6727.879","OBJECT_NAME":"STARLINK-4727","EPHEMERIS_TYPE":"0","MEAN_MOTION":"15.73205681","MEAN_ELEMENT_THEORY":"SGP4","OBJECT_TYPE":"PAYLOAD","SITE":"AFETR","DECAY_DATE":null,"REV_AT_EPOCH":"130","TLE_LINE2":"2 53803  53.2148 271.4758 0003631   4.9597 182.0712 15.73205681  1308"},{"TLE_LINE2":"2 53804  53.2135 271.4796 0003545   3.2223 183.1863 15.73196800  1300","DECAY_DATE":null,"SITE":"AFETR","REV_AT_EPOCH":"130","OBJECT_TYPE":"PAYLOAD","MEAN_ELEMENT_THEORY":"SGP4","MEAN_MOTION":"15.73196800","EPHEMERIS_TYPE":"0","SEMIMAJOR_AXIS":"6727.904","MEAN_MOTION_DOT":"0.00059265","LAUNCH_DATE":"2022-09-11","OBJECT_NAME":"STARLINK-4729","MEAN_MOTION_DDOT":"0.0000000000000","ARG_OF_PERICENTER":"3.2223","CLASSIFICATION_TYPE":"U","INCLINATION":"53.2135","ELEMENT_SET_NO":"999","NORAD_CAT_ID":"53804","BSTAR":"0.00042367000000","RA_OF_ASC_NODE":"271.4796","RCS_SIZE":"LARGE","PERIOD":"91.533","ECCENTRICITY":"0.00035450","PERIAPSIS":"347.384","OBJECT_ID":"2022-111AH","TLE_LINE1":"1 53804U 22111AH  22325.91667824  .00059265  00000-0  42367-3 0  9996","APOAPSIS":"352.154","EPOCH":"2022-11-21T22:00:00.999936","COUNTRY_CODE":"US","MEAN_ANOMALY":"183.1863","FILE":"3666658","REF_FRAME":"TEME","GP_ID":"218435994","CENTER_NAME":"EARTH","TIME_SYSTEM":"UTC"},{"RA_OF_ASC_NODE":"271.4748","ELEMENT_SET_NO":"999","NORAD_CAT_ID":"53805","BSTAR":"0.00045271000000","ARG_OF_PERICENTER":"8.7642","MEAN_MOTION_DDOT":"0.0000000000000","CLASSIFICATION_TYPE":"U","INCLINATION":"53.2149","SEMIMAJOR_AXIS":"6727.912","MEAN_MOTION_DOT":"0.00063391","LAUNCH_DATE":"2022-09-11","OBJECT_NAME":"STARLINK-4763","REF_FRAME":"TEME","GP_ID":"218436480","CENTER_NAME":"EARTH","TIME_SYSTEM":"UTC","EPOCH":"2022-11-21T22:00:00.999936","COUNTRY_CODE":"US","MEAN_ANOMALY":"178.8173","FILE":"3666658","RCS_SIZE":"LARGE","ECCENTRICITY":"0.00032180","PERIOD":"91.534","PERIAPSIS":"347.611","OBJECT_ID":"2022-111AJ","APOAPSIS":"351.942","TLE_LINE1":"1 53805U 22111AJ  22325.91667824  .00063391  00000-0  45271-3 0  9999","OBJECT_TYPE":"PAYLOAD","MEAN_ELEMENT_THEORY":"SGP4","DECAY_DATE":null,"SITE":"AFETR","REV_AT_EPOCH":"130","TLE_LINE2":"2 53805  53.2149 271.4748 0003218   8.7642 178.8173 15.73194261  1309","EPHEMERIS_TYPE":"0","MEAN_MOTION":"15.73194261"},{"TLE_LINE2":"2 53806  53.2146 271.4764 0003521   9.4010 178.7278 15.73141561  1309","DECAY_DATE":null,"SITE":"AFETR","REV_AT_EPOCH":"130","OBJECT_TYPE":"PAYLOAD","MEAN_ELEMENT_THEORY":"SGP4","MEAN_MOTION":"15.73141561","EPHEMERIS_TYPE":"0","SEMIMAJOR_AXIS":"6728.062","MEAN_MOTION_DOT":"0.00178734","LAUNCH_DATE":"2022-09-11","OBJECT_NAME":"STARLINK-4768","MEAN_MOTION_DDOT":"0.0000000000000","ARG_OF_PERICENTER":"9.4010","CLASSIFICATION_TYPE":"U","INCLINATION":"53.2146","ELEMENT_SET_NO":"999","NORAD_CAT_ID":"53806","BSTAR":"0.00125390000000","RA_OF_ASC_NODE":"271.4764","ECCENTRICITY":"0.00035210","RCS_SIZE":"LARGE","PERIOD":"91.537","PERIAPSIS":"347.558","OBJECT_ID":"2022-111AK","APOAPSIS":"352.296","TLE_LINE1":"1 53806U 22111AK  22325.91667824  .00178734  00000-0  12539-2 0  9998","EPOCH":"2022-11-21T22:00:00.999936","COUNTRY_CODE":"US","MEAN_ANOMALY":"178.7278","FILE":"3666658","REF_FRAME":"TEME","GP_ID":"218435666","CENTER_NAME":"EARTH","TIME_SYSTEM":"UTC"},{"MEAN_MOTION":"15.11676442","EPHEMERIS_TYPE":"0","MEAN_ELEMENT_THEORY":"SGP4","OBJECT_TYPE":"PAYLOAD","TLE_LINE2":"2 53818  53.2162 308.3312 0001942  38.1843 145.0154 15.11676442  1300","SITE":"AFETR","DECAY_DATE":null,"REV_AT_EPOCH":"130","COUNTRY_CODE":"US","MEAN_ANOMALY":"145.0154","EPOCH":"2022-11-21T22:00:00.999936","FILE":"3666658","GP_ID":"218435831","REF_FRAME":"TEME","CENTER_NAME":"EARTH","TIME_SYSTEM":"UTC","PERIAPSIS":"529.747","ECCENTRICITY":"0.00019420","RCS_SIZE":"LARGE","PERIOD":"95.258","APOAPSIS":"532.431","TLE_LINE1":"1 53818U 22114A   22325.91667824 -.01189193  00000-0 -75259-1 0  9995","OBJECT_ID":"2022-114A","ELEMENT_SET_NO":"999","BSTAR":"-0.07525900000000","NORAD_CAT_ID":"53818","RA_OF_ASC_NODE":"308.3312","LAUNCH_DATE":"2022-09-19","SEMIMAJOR_AXIS":"6909.224","MEAN_MOTION_DOT":"-0.01189193","OBJECT_NAME":"STARLINK-4749","CLASSIFICATION_TYPE":"U","ARG_OF_PERICENTER":"38.1843","MEAN_MOTION_DDOT":"0.0000000000000","INCLINATION":"53.2162"},{"OBJECT_TYPE":"PAYLOAD","MEAN_ELEMENT_THEORY":"SGP4","REV_AT_EPOCH":"130","DECAY_DATE":null,"SITE":"AFETR","TLE_LINE2":"2 53819  53.2160 308.2563 0001642  55.8294 164.8150 15.12230163  1301","EPHEMERIS_TYPE":"0","MEAN_MOTION":"15.12230163","RA_OF_ASC_NODE":"308.2563","NORAD_CAT_ID":"53819","BSTAR":"-0.07224400000000","ELEMENT_SET_NO":"999","INCLINATION":"53.2160","MEAN_MOTION_DDOT":"0.0000000000000","ARG_OF_PERICENTER":"55.8294","CLASSIFICATION_TYPE":"U","OBJECT_NAME":"STARLINK-4738","MEAN_MOTION_DOT":"-0.01161679","SEMIMAJOR_AXIS":"6907.537","LAUNCH_DATE":"2022-09-19","CENTER_NAME":"EARTH","TIME_SYSTEM":"UTC","GP_ID":"218435995","REF_FRAME":"TEME","FILE":"3666658","MEAN_ANOMALY":"164.8150","COUNTRY_CODE":"US","EPOCH":"2022-11-21T22:00:00.999936","OBJECT_ID":"2022-114B","TLE_LINE1":"1 53819U 22114B   22325.91667824 -.01161679  00000-0 -72244-1 0  9996","APOAPSIS":"530.537","RCS_SIZE":"LARGE","PERIOD":"95.224","ECCENTRICITY":"0.00016420","PERIAPSIS":"528.268"}];
